[
    {
        "Altitude(m)": 624792.7647972148,
        "Argument of Periapsis(deg)": 0.0,
        "Eccentricity": 0.0,
        "Inclination(deg)": 60.0,
        "Latitude(deg)": -59.14706551685934,
        "Longitude(deg)": 19.026569950385454,
        "Mean Anomaly(deg)": -98.18180000000004,
        "RAAN(deg)": 225.0,
        "Satellite Name": "Test1 1006",
        "Satellite Number": 1006,
        "Semi-Major Axis(m)": 6980739.136638005,
        "Time(s)": 0
    },
    {
        "Altitude(m)": 624842.1562023074,
        "Argument of Periapsis(deg)": 0.00010418945913296404,
        "Eccentricity": 0.0,
        "Inclination(deg)": 60.0,
        "Latitude(deg)": -59.28914713643091,
        "Longitude(deg)": 20.156074201019376,
        "Mean Anomaly(deg)": -97.56169385453819,
        "RAAN(deg)": 224.99957995086024,
        "Satellite Name": "Test1 1006",
        "Satellite Number": 1006,
        "Semi-Major Axis(m)": 6980739.136638005,
        "Time(s)": 10
    }
]